[{"OBJECT_NAME":"LUSAT (LO-19)","OBJECT_ID":"1990-005G","EPOCH":"2026-03-09T14:54:14.260896","MEAN_MOTION":14.34087969,"ECCENTRICITY":0.001234,"INCLINATION":98.8938,"RA_OF_ASC_NODE":87.6461,"ARG_OF_PERICENTER":134.6824,"MEAN_ANOMALY":225.5367,"EPHEMERIS_TYPE":0,"CLASSIFICATION_TYPE":"U","NORAD_CAT_ID":20442,"ELEMENT_SET_NO":999,"REV_AT_EPOCH":88812,"BSTAR":8.4338e-5,"MEAN_MOTION_DOT":1.89e-6,"MEAN_MOTION_DDOT":0},{"OBJECT_NAME":"FENGYUN 1C DEB","OBJECT_ID":"1999-025EPB","EPOCH":"2026-03-09T18:34:15.311712","MEAN_MOTION":14.24871796,"ECCENTRICITY":0.00506084,"INCLINATION":98.7124,"RA_OF_ASC_NODE":136.3179,"ARG_OF_PERICENTER":330.161,"MEAN_ANOMALY":154.3958,"EPHEMERIS_TYPE":0,"CLASSIFICATION_TYPE":"U","NORAD_CAT_ID":37926,"ELEMENT_SET_NO":999,"REV_AT_EPOCH":75509,"BSTAR":0.0014053128,"MEAN_MOTION_DOT":3.282e-5,"MEAN_MOTION_DDOT":0}]
